ONEWEB-0273             
1 48991U 21060AA  23250.79518711  .00000107  00000+0  24511-3 0  9994
2 48991  87.8980  70.4863 0001985  90.7822 269.3536 13.16595544106242
ONEWEB-0274             
1 48992U 21060AB  23251.04849759  .00002384  00000+0  61981-2 0  9993
2 48992  87.8984  70.4395 0002358 103.6930 256.4464 13.16611983107611
ONEWEB-0275             
1 48993U 21060AC  23250.42999642  .00000050  00000+0  97909-4 0  9991
2 48993  87.8984  70.5665 0001799  87.9041 272.2296 13.16590129106164
ONEWEB-0276             
1 48994U 21060AD  23251.07174091  .00000043  00000+0  78596-4 0  9990
2 48994  87.9065  70.4234 0002186  93.2516 266.8865 13.16593062107560
ONEWEB-0277             
1 48995U 21060AE  23250.47643447  .00000028  00000+0  39647-4 0  9997
2 48995  87.9095  70.5480 0002270  99.6671 260.4716 13.16594358107467
ONEWEB-0278             
1 48996U 21060AF  23250.46586861  .00000003  00000+0 -25365-4 0  9999
2 48996  87.8981  70.5421 0001730  76.6739 283.4585 13.16595796106304
ONEWEB-0279             
1 48997U 21060AG  23251.00629621  .00000002  00000+0 -28226-4 0  9991
2 48997  87.8978  70.4317 0001757  91.4671 268.6661 13.16596485107603
ONEWEB-0280             
1 48998U 21060AH  23250.79308903  .00000116  00000+0  27014-3 0  9992
2 48998  87.8976  70.4743 0002413 103.9457 256.1943 13.16593202106211
